$$SOE
2459580.500000000, A.D. 2022-Jan-01 00:00:00.0000, 6.909816353628227E+07, -3.616368845383029E+08, 3.773888092360915E+07,
2459587.500000000, A.D. 2022-Jan-08 00:00:00.0000, 7.974060958150396E+07, -3.595429676966426E+08, 3.798072285012010E+07,
2459594.500000000, A.D. 2022-Jan-15 00:00:00.0000, 9.030682733404632E+07, -3.571051164304339E+08, 3.818622723923121E+07,
2459601.500000000, A.D. 2022-Jan-22 00:00:00.0000, 1.007867776208787E+08, -3.543259066061855E+08, 3.835522283087964E+07,
2459608.500000000, A.D. 2022-Jan-29 00:00:00.0000, 1.111704902899595E+08, -3.512081342647052E+08, 3.848756278463498E+07,
2459615.500000000, A.D. 2022-Feb-05 00:00:00.0000, 1.214480625758336E+08, -3.477548156504738E+08, 3.858312478992264E+07,
2459622.500000000, A.D. 2022-Feb-12 00:00:00.0000, 1.316096597176499E+08, -3.439691886180798E+08, 3.864181092383654E+07,
2459629.500000000, A.D. 2022-Feb-19 00:00:00.0000, 1.416455165255582E+08, -3.398547130420939E+08, 3.866354757217020E+07,
2459636.500000000, A.D. 2022-Feb-26 00:00:00.0000, 1.515459386038052E+08, -3.354150709479544E+08, 3.864828547519490E+07,
2459643.500000000, A.D. 2022-Mar-05 00:00:00.0000, 1.613013034093259E+08, -3.306541669742203E+08, 3.859599983321236E+07,
2459650.500000000, A.D. 2022-Mar-12 00:00:00.0000, 1.709020613871940E+08, -3.255761292248729E+08, 3.850669044611728E+07,
2459657.500000000, A.D. 2022-Mar-19 00:00:00.0000, 1.803387372732522E+08, -3.201853104759511E+08, 3.838038188252300E+07,
2459664.500000000, A.D. 2022-Mar-26 00:00:00.0000, 1.896019316054653E+08, -3.144862897334107E+08, 3.821712367532951E+07,
2459671.500000000, A.D. 2022-Apr-02 00:00:00.0000, 1.986823225320819E+08, -3.084838741875930E+08, 3.801699053219847E+07,
2459678.500000000, A.D. 2022-Apr-09 00:00:00.0000, 2.075706682111054E+08, -3.021831015494837E+08, 3.778008253624673E+07,
2459685.500000000, A.D. 2022-Apr-16 00:00:00.0000, 2.162578101815304E+08, -2.955892421068375E+08, 3.750652535843483E+07,
2459692.500000000, A.D. 2022-Apr-23 00:00:00.0000, 2.247346764593952E+08, -2.887077994088186E+08, 3.719647068751481E+07,
2459699.500000000, A.D. 2022-Apr-30 00:00:00.0000, 2.329922825082068E+08, -2.815445118145723E+08, 3.685009686549756E+07,
2459706.500000000, A.D. 2022-May-07 00:00:00.0000, 2.410217331659327E+08, -2.741053568658879E+08, 3.646760928555693E+07,
2459713.500000000, A.D. 2022-May-14 00:00:00.0000, 2.488142269383132E+08, -2.663965554321664E+08, 3.604924067247981E+07,
2459720.500000000, A.D. 2022-May-21 00:00:00.0000, 2.563610606465479E+08, -2.584245748541005E+08, 3.559525149275472E+07,
2459727.500000000, A.D. 2022-May-28 00:00:00.0000, 2.636536339694787E+08, -2.501961320251894E+08, 3.510593045759912E+07,
2459734.500000000, A.D. 2022-Jun-04 00:00:00.0000, 2.706834541801443E+08, -2.417181967006295E+08, 3.458159506571504E+07,
2459741.500000000, A.D. 2022-Jun-11 00:00:00.0000, 2.774421412494296E+08, -2.329979950088215E+08, 3.402259217189611E+07,
2459748.500000000, A.D. 2022-Jun-18 00:00:00.0000, 2.839214333857530E+08, -2.240430131330125E+08, 3.342929857973317E+07,
2459755.500000000, A.D. 2022-Jun-25 00:00:00.0000, 2.901131930679702E+08, -2.148610011785374E+08, 3.280212165377355E+07,
2459762.500000000, A.D. 2022-Jul-02 00:00:00.0000, 2.960094137291664E+08, -2.054599772702814E+08, 3.214149993287443E+07,
2459769.500000000, A.D. 2022-Jul-09 00:00:00.0000, 3.016022275047088E+08, -1.958482316764068E+08, 3.144790372186485E+07,
2459776.500000000, A.D. 2022-Jul-16 00:00:00.0000, 3.068839140157480E+08, -1.860343298463361E+08, 3.072183575405671E+07,
2459783.500000000, A.D. 2022-Jul-23 00:00:00.0000, 3.118469080162998E+08, -1.760271142567327E+08, 2.996383213164969E+07,
2459790.500000000, A.D. 2022-Jul-30 00:00:00.0000, 3.164838060100155E+08, -1.658357083865022E+08, 2.917446325962844E+07,
2459797.500000000, A.D. 2022-Aug-06 00:00:00.0000, 3.207873754566275E+08, -1.554695221327997E+08, 2.835433449255436E+07,
2459804.500000000, A.D. 2022-Aug-13 00:00:00.0000, 3.247505657690838E+08, -1.449382558716115E+08, 2.750408679191771E+07,
2459811.500000000, A.D. 2022-Aug-20 00:00:00.0000, 3.283665195556759E+08, -1.342519036236218E+08, 2.662439749385773E+07,
2459818.500000000, A.D. 2022-Aug-27 00:00:00.0000, 3.316285841959106E+08, -1.234207560063503E+08, 2.571598111801692E+07,
2459825.500000000, A.D. 2022-Sep-03 00:00:00.0000, 3.345303240157764E+08, -1.124554030331465E+08, 2.477959018142330E+07,
2459832.500000000, A.D. 2022-Sep-10 00:00:00.0000, 3.370655331678333E+08, -1.013667366798888E+08, 2.381601600601413E+07,
2459839.500000000, A.D. 2022-Sep-17 00:00:00.0000, 3.392282492592781E+08, -9.016595316038655E+07, 2.282608951136694E+07,
2459846.500000000, A.D. 2022-Sep-24 00:00:00.0000, 3.410127678010783E+08, -7.886455489604649E+07, 2.181068197704662E+07,
2459853.500000000, A.D. 2022-Oct-01 00:00:00.0000, 3.424136577281024E+08, -6.747435213288908E+07, 2.077070574423554E+07,
2459860.500000000, A.D. 2022-Oct-08 00:00:00.0000, 3.434257784039736E+08, -5.600746360877492E+07, 1.970711485493986E+07,
2459867.500000000, A.D. 2022-Oct-15 00:00:00.0000, 3.440442971874576E+08, -4.447631499200688E+07, 1.862090580618082E+07,
2459874.500000000, A.D. 2022-Oct-22 00:00:00.0000, 3.442647053877144E+08, -3.289363669867146E+07, 1.751311847562509E+07,
2459881.500000000, A.D. 2022-Oct-29 00:00:00.0000, 3.440828351010635E+08, -2.127246360448133E+07, 1.638483676862905E+07,
2459888.500000000, A.D. 2022-Nov-05 00:00:00.0000, 3.434948790116425E+08, -9.626133822659343E+06, 1.523718900767944E+07,
2459895.500000000, A.D. 2022-Nov-12 00:00:00.0000, 3.424974111709285E+08, 2.031714812412136E+06, 1.407134833778821E+07,
2459902.500000000, A.D. 2022-Nov-19 00:00:00.0000, 3.410874080107886E+08, 1.368714969735516E+07, 1.288853312525706E+07,
2459909.500000000, A.D. 2022-Nov-26 00:00:00.0000, 3.392622698176002E+08, 2.532594954929908E+07, 1.169000728198500E+07,
2459916.500000000, A.D. 2022-Dec-03 00:00:00.0000, 3.370198427894672E+08, 3.693361172316908E+07, 1.047708048726123E+07,
2459923.500000000, A.D. 2022-Dec-10 00:00:00.0000, 3.343584416682978E+08, 4.849536087997107E+07, 9.251108292036856E+06,
2459930.500000000, A.D. 2022-Dec-17 00:00:00.0000, 3.312768729075426E+08, 5.999615908743542E+07, 8.013492088606559E+06,
2459937.500000000, A.D. 2022-Dec-24 00:00:00.0000, 3.277744584105992E+08, 7.142071739403391E+07, 6.765678917095888E+06,
2459944.500000000, A.D. 2022-Dec-31 00:00:00.0000, 3.238510601101959E+08, 8.275350908844720E+07, 5.509161070708215E+06,
2459951.500000000, A.D. 2023-Jan-07 00:00:00.0000, 3.195071054046379E+08, 9.397878570978117E+07, 4.245475552212425E+06,
2459958.500000000, A.D. 2023-Jan-14 00:00:00.0000, 3.147436113640891E+08, 1.050805964138791E+08, 2.976203588920981E+06,
2459965.500000000, A.D. 2023-Jan-21 00:00:00.0000, 3.095622069430222E+08, 1.160428076276235E+08, 1.702969992827803E+06,
2459972.500000000, A.D. 2023-Jan-28 00:00:00.0000, 3.039651567286791E+08, 1.268491228845550E+08, 4.274419980567768E+05,
2459979.500000000, A.D. 2023-Feb-04 00:00:00.0000, 2.979553858536054E+08, 1.374831059516427E+08, -8.486721735845283E+05,
2459986.500000000, A.D. 2023-Feb-11 00:00:00.0000, 2.915365040990838E+08, 1.479282071267448E+08, -2.123624885293931E+06,
2459993.500000000, A.D. 2023-Feb-18 00:00:00.0000, 2.847128289292544E+08, 1.581677919423043E+08, -3.395630872746989E+06,
2460000.500000000, A.D. 2023-Feb-25 00:00:00.0000, 2.774894074992473E+08, 1.681851721606752E+08, -4.662869297686167E+06,
2460007.500000000, A.D. 2023-Mar-04 00:00:00.0000, 2.698720375041665E+08, 1.779636391196836E+08, -5.923486087246463E+06,
2460014.500000000, A.D. 2023-Mar-11 00:00:00.0000, 2.618672866566841E+08, 1.874864994581653E+08, -7.175596571189165E+06,
2460021.500000000, A.D. 2023-Mar-18 00:00:00.0000, 2.534825105971288E+08, 1.967371131804535E+08, -8.417288433868647E+06,
2460028.500000000, A.D. 2023-Mar-25 00:00:00.0000, 2.447258691890062E+08, 2.056989339921619E+08, -9.646625011426508E+06,
2460035.500000000, A.D. 2023-Apr-01 00:00:00.0000, 2.356063413628606E+08, 2.143555522477532E+08, -1.086164894832908E+07,
2460042.500000000, A.D. 2023-Apr-08 00:00:00.0000, 2.261337376142978E+08, 2.226907416445087E+08, -1.206038606198345E+07,
2460049.500000000, A.D. 2023-Apr-15 00:00:00.0000, 2.163187075215341E+08, 2.306885084405783E+08, -1.324084929174116E+07,
2460056.500000000, A.D. 2023-Apr-22 00:00:00.0000, 2.061727438064446E+08, 2.383331400132873E+08, -1.440104314516714E+07,
2460063.500000000, A.D. 2023-Apr-29 00:00:00.0000, 1.957081853989723E+08, 2.456092548332950E+08, -1.553896870463297E+07,
2460070.500000000, A.D. 2023-May-06 00:00:00.0000, 1.849382174632410E+08, 2.525018554164354E+08, -1.665262887843551E+07,
2460077.500000000, A.D. 2023-May-13 00:00:00.0000, 1.738768671383592E+08, 2.589963831096373E+08, -1.774003386648476E+07,
2460084.500000000, A.D. 2023-May-20 00:00:00.0000, 1.625389949771963E+08, 2.650787739343140E+08, -1.879920688496599E+07,
2460091.500000000, A.D. 2023-May-27 00:00:00.0000, 1.509402820475263E+08, 2.707355151350079E+08, -1.982819014872539E+07,
2460098.500000000, A.D. 2023-Jun-03 00:00:00.0000, 1.390972125502830E+08, 2.759537021004433E+08, -2.082505108864716E+07,
2460105.500000000, A.D. 2023-Jun-10 00:00:00.0000, 1.270270518074122E+08, 2.807210952504246E+08, -2.178788877682991E+07,
2460112.500000000, A.D. 2023-Jun-17 00:00:00.0000, 1.147478195738362E+08, 2.850261764047396E+08, -2.271484053752077E+07,
2460119.500000000, A.D. 2023-Jun-24 00:00:00.0000, 1.022782589010291E+08, 2.888582042399558E+08, -2.360408872914180E+07,
2460126.500000000, A.D. 2023-Jul-01 00:00:00.0000, 8.963780076239537E+07, 2.922072691928638E+08, -2.445386761019512E+07,
2460133.500000000, A.D. 2023-Jul-08 00:00:00.0000, 7.684652278011355E+07, 2.950643481393209E+08, -2.526247002201325E+07,
2460140.500000000, A.D. 2023-Jul-15 00:00:00.0000, 6.392510083453031E+07, 2.974213555008588E+08, -2.602825394861597E+07,
2460147.500000000, A.D. 2023-Jul-22 00:00:00.0000, 5.089475718843777E+07, 2.992711892446434E+08, -2.674964930611841E+07,
$$EOE